{
    "links": {
        "self": "http://www.neowsapp.com/rest/v1/neo/3837635?api_key=iIulBulltgU6a56xZRHN4H3l9WmuAYTsLGpBGhQ2"
    },
    "id": "3837635",
    "neo_reference_id": "3837635",
    "name": "(2019 AO3)",
    "designation": "2019 AO3",
    "nasa_jpl_url": "http://ssd.jpl.nasa.gov/sbdb.cgi?sstr=3837635",
    "absolute_magnitude_h": 20.9,
    "estimated_diameter": {
        "kilometers": {
            "estimated_diameter_min": 0.1756123185,
            "estimated_diameter_max": 0.3926810818
        },
        "meters": {
            "estimated_diameter_min": 175.6123184804,
            "estimated_diameter_max": 392.6810818086
        },
        "miles": {
            "estimated_diameter_min": 0.1091204019,
            "estimated_diameter_max": 0.2440006365
        },
        "feet": {
            "estimated_diameter_min": 576.1559189633,
            "estimated_diameter_max": 1288.3238004408
        }
    },
    "is_potentially_hazardous_asteroid": false,
    "close_approach_data": [
        {
            "close_approach_date": "1977-02-04",
            "close_approach_date_full": "1977-Feb-04 08:09",
            "epoch_date_close_approach": 223891740000,
            "relative_velocity": {
                "kilometers_per_second": "18.1862819457",
                "kilometers_per_hour": "65470.6150044462",
                "miles_per_hour": "40680.8940842905"
            },
            "miss_distance": {
                "astronomical": "0.4642255679",
                "lunar": "180.5837459131",
                "kilometers": "69447156.157380373",
                "miles": "43152461.8299522274"
            },
            "orbiting_body": "Earth"
        },
        {
            "close_approach_date": "2019-02-05",
            "close_approach_date_full": "2019-Feb-05 01:26",
            "epoch_date_close_approach": 1549329960000,
            "relative_velocity": {
                "kilometers_per_second": "18.6929148427",
                "kilometers_per_hour": "67294.4934338413",
                "miles_per_hour": "41814.181211711"
            },
            "miss_distance": {
                "astronomical": "0.4480934124",
                "lunar": "174.3083374236",
                "kilometers": "67033820.056071588",
                "miles": "41652884.3129323944"
            },
            "orbiting_body": "Earth"
        },
        {
            "close_approach_date": "2061-02-04",
            "close_approach_date_full": "2061-Feb-04 12:31",
            "epoch_date_close_approach": 2874745860000,
            "relative_velocity": {
                "kilometers_per_second": "19.3662579595",
                "kilometers_per_hour": "69718.5286543321",
                "miles_per_hour": "43320.3824296876"
            },
            "miss_distance": {
                "astronomical": "0.4471196303",
                "lunar": "173.9295361867",
                "kilometers": "66888144.328067461",
                "miles": "41562365.6129585218"
            },
            "orbiting_body": "Earth"
        }
    ],
    "orbital_data": {
        "orbit_id": "10",
        "orbit_determination_date": "2019-03-25 07:11:29",
        "first_observation_date": "2019-01-03",
        "last_observation_date": "2019-03-24",
        "data_arc_in_days": 80,
        "observations_used": 41,
        "orbit_uncertainty": "6",
        "minimum_orbit_intersection": ".443498",
        "jupiter_tisserand_invariant": "3.314",
        "epoch_osculation": "2459000.5",
        "eccentricity": ".4794763846743668",
        "semi_major_axis": "2.184403222429123",
        "inclination": "34.9810527609955",
        "ascending_node_longitude": "295.5646741605292",
        "orbital_period": "1179.227611703109",
        "perihelion_distance": "1.137033462667771",
        "perihelion_argument": "261.5532832528353",
        "aphelion_distance": "3.231772982190476",
        "perihelion_time": "2458588.623402832026",
        "mean_anomaly": "125.7395718255972",
        "mean_motion": ".3052845747735392",
        "equinox": "J2000",
        "orbit_class": {
            "orbit_class_type": "AMO",
            "orbit_class_description": "Near-Earth asteroid orbits similar to that of 1221 Amor",
            "orbit_class_range": "1.017 AU < q (perihelion) < 1.3 AU"
        }
    },
    "is_sentry_object": false
}